[{"OBJECT_NAME":"STARLINK-2058","OBJECT_ID":"2021-012AZ","EPOCH":"2026-03-09T22:00:01.999584","MEAN_MOTION":15.81751151,"ECCENTRICITY":0.00080245,"INCLINATION":53.0405,"RA_OF_ASC_NODE":22.819,"ARG_OF_PERICENTER":62.933,"MEAN_ANOMALY":251.0227,"EPHEMERIS_TYPE":0,"CLASSIFICATION_TYPE":"U","NORAD_CAT_ID":47667,"ELEMENT_SET_NO":999,"REV_AT_EPOCH":586,"BSTAR":0.001226838,"MEAN_MOTION_DOT":0.00259649,"MEAN_MOTION_DDOT":0},{"OBJECT_NAME":"STARLINK-36848","OBJECT_ID":"2026-037E","EPOCH":"2026-03-09T22:00:01.999584","MEAN_MOTION":15.82003711,"ECCENTRICITY":0.00016981,"INCLINATION":42.9987,"RA_OF_ASC_NODE":197.1334,"ARG_OF_PERICENTER":275.0989,"MEAN_ANOMALY":232.2329,"EPHEMERIS_TYPE":0,"CLASSIFICATION_TYPE":"U","NORAD_CAT_ID":67936,"ELEMENT_SET_NO":999,"REV_AT_EPOCH":323,"BSTAR":0.00023820011,"MEAN_MOTION_DOT":0.00049884,"MEAN_MOTION_DDOT":0}]
